{"type": "FeatureCollection", "features": [ {"type": "Feature", "properties": {"norad_id": 34833, "name": "IRIDIUM 33 DEB", "group": "iridium-33-debris", "lat": -39.444125658632, "lon": -129.22654210989322, "alt_km": 736.6717166739427, "timestamp": "2025-12-20T03:42:47.779249+00:00", "meta": {"OBJECT_NAME": "IRIDIUM 33 DEB", "OBJECT_ID": "1997-051MH", "EPOCH": "2025-12-19T09:05:01.669920", "MEAN_MOTION": 14.52414234, "ECCENTRICITY": 0.0021541, "INCLINATION": 86.3931, "RA_OF_ASC_NODE": 48.1333, "ARG_OF_PERICENTER": 78.2401, "MEAN_ANOMALY": 44.9997, "EPHEMERIS_TYPE": 0, "CLASSIFICATION_TYPE": "U", "NORAD_CAT_ID": 34833, "ELEMENT_SET_NO": 999, "REV_AT_EPOCH": 87811, "BSTAR": 0.00049084, "MEAN_MOTION_DOT": 2.026e-05, "MEAN_MOTION_DDOT": 0}, "tle": {"line1": "1 34833U 97051MH  25353.37849155  .00002026  00000+0  49084-3 0  9990", "line2": "2 34833  86.3931  48.1333 0021541  78.2401  44.9997 14.52414234878117"}}, "geometry": {"type": "Point", "coordinates": [-129.22654210989322, -39.444125658632]}}, {"type": "Feature", "properties": {"norad_id": 34870, "name": "IRIDIUM 33 DEB", "group": "iridium-33-debris", "lat": 65.98118484569814, "lon": 122.36117317332848, "alt_km": 625.0373186133047, "timestamp": "2025-12-20T03:42:47.779259+00:00", "meta": {"OBJECT_NAME": "IRIDIUM 33 DEB", "OBJECT_ID": "1997-051MQ", "EPOCH": "2025-12-17T15:48:12.189024", "MEAN_MOTION": 14.76525212, "ECCENTRICITY": 0.00169592, "INCLINATION": 86.3102, "RA_OF_ASC_NODE": 311.8309, "ARG_OF_PERICENTER": 164.6796, "MEAN_ANOMALY": 8.9227, "EPHEMERIS_TYPE": 0, "CLASSIFICATION_TYPE": "U", "NORAD_CAT_ID": 34870, "ELEMENT_SET_NO": 999, "REV_AT_EPOCH": 88983, "BSTAR": 0.0011120343, "MEAN_MOTION_DOT": 7.793e-05, "MEAN_MOTION_DDOT": 0}, "tle": {"line1": "1 34870U 97051MQ  25351.65847441  .00007793  00000+0  11120-2 0  9991", "line2": "2 34870  86.3102 311.8309 0016959 164.6796   8.9227 14.76525212889837"}}, "geometry": {"type": "Point", "coordinates": [122.36117317332848, 65.98118484569814]}}, {"type": "Feature", "properties": {"norad_id": 34896, "name": "IRIDIUM 33 DEB", "group": "iridium-33-debris", "lat": 43.00576547018035, "lon": -33.207406897401384, "alt_km": 683.62416798309, "timestamp": "2025-12-20T03:42:47.779270+00:00", "meta": {"OBJECT_NAME": "IRIDIUM 33 DEB", "OBJECT_ID": "1997-051MY", "EPOCH": "2025-12-17T17:20:43.717344", "MEAN_MOTION": 14.6632638, "ECCENTRICITY": 0.00248916, "INCLINATION": 86.3286, "RA_OF_ASC_NODE": 324.4498, "ARG_OF_PERICENTER": 196.3048, "MEAN_ANOMALY": 337.3904, "EPHEMERIS_TYPE": 0, "CLASSIFICATION_TYPE": "U", "NORAD_CAT_ID": 34896, "ELEMENT_SET_NO": 999, "REV_AT_EPOCH": 87692, "BSTAR": 0.00069874419, "MEAN_MOTION_DOT": 3.895e-05, "MEAN_MOTION_DDOT": 0}, "tle": {"line1": "1 34896U 97051MY  25351.72272821  .00003895  00000+0  69874-3 0  9990", "line2": "2 34896  86.3286 324.4498 0024891 196.3048 337.3904 14.66326380876924"}}, "geometry": {"type": "Point", "coordinates": [-33.207406897401384, 43.00576547018035]}}, {"type": "Feature", "properties": {"norad_id": 34926, "name": "IRIDIUM 33 DEB", "group": "iridium-33-debris", "lat": 3.2943896391068583, "lon": -175.38832090718566, "alt_km": 713.033985934172, "timestamp": "2025-12-20T03:42:47.779280+00:00", "meta": {"OBJECT_NAME": "IRIDIUM 33 DEB", "OBJECT_ID": "1997-051NF", "EPOCH": "2025-12-19T19:26:45.064320", "MEAN_MOTION": 14.54714955, "ECCENTRICITY": 0.0074595, "INCLINATION": 86.1317, "RA_OF_ASC_NODE": 4.9946, "ARG_OF_PERICENTER": 268.3171, "MEAN_ANOMALY": 266.2567, "EPHEMERIS_TYPE": 0, "CLASSIFICATION_TYPE": "U", "NORAD_CAT_ID": 34926, "ELEMENT_SET_NO": 999, "REV_AT_EPOCH": 86559, "BSTAR": 0.0034871, "MEAN_MOTION_DOT": 0.00015528, "MEAN_MOTION_DDOT": 0}, "tle": {"line1": "1 34926U 97051NF  25353.81024380  .00015528  00000+0  34871-2 0  9995", "line2": "2 34926  86.1317   4.9946 0074595 268.3171 266.2567 14.54714955865594"}}, "geometry": {"type": "Point", "coordinates": [-175.38832090718566, 3.2943896391068583]}}, {"type": "Feature", "properties": {"norad_id": 34985, "name": "IRIDIUM 33 DEB", "group": "iridium-33-debris", "lat": -32.348360357024404, "lon": 51.4125363346811, "alt_km": 768.2423069244578, "timestamp": "2025-12-20T03:42:47.779291+00:00", "meta": {"OBJECT_NAME": "IRIDIUM 33 DEB", "OBJECT_ID": "1997-051NR", "EPOCH": "2025-12-18T03:42:15.992064", "MEAN_MOTION": 14.42032375, "ECCENTRICITY": 0.00213063, "INCLINATION": 86.3697, "RA_OF_ASC_NODE": 54.5701, "ARG_OF_PERICENTER": 201.5738, "MEAN_ANOMALY": 187.9746, "EPHEMERIS_TYPE": 0, "CLASSIFICATION_TYPE": "U", "NORAD_CAT_ID": 34985, "ELEMENT_SET_NO": 999, "REV_AT_EPOCH": 87253, "BSTAR": 0.00049263148, "MEAN_MOTION_DOT": 1.64e-05, "MEAN_MOTION_DDOT": 0}, "tle": {"line1": "1 34985U 97051NR  25352.15435176  .00001640  00000+0  49263-3 0  9997", "line2": "2 34985  86.3697  54.5701 0021306 201.5738 187.9746 14.42032375872538"}}, "geometry": {"type": "Point", "coordinates": [51.4125363346811, -32.348360357024404]}}, {"type": "Feature", "properties": {"norad_id": 35051, "name": "IRIDIUM 33 DEB", "group": "iridium-33-debris", "lat": 48.967960606072786, "lon": 9.866789434133562, "alt_km": 722.1062088087874, "timestamp": "2025-12-20T03:42:47.779301+00:00", "meta": {"OBJECT_NAME": "IRIDIUM 33 DEB", "OBJECT_ID": "1997-051NX", "EPOCH": "2025-12-19T07:34:48.667584", "MEAN_MOTION": 14.47625509, "ECCENTRICITY": 0.0010483, "INCLINATION": 86.3238, "RA_OF_ASC_NODE": 5.9957, "ARG_OF_PERICENTER": 72.9006, "MEAN_ANOMALY": 287.3345, "EPHEMERIS_TYPE": 0, "CLASSIFICATION_TYPE": "U", "NORAD_CAT_ID": 35051, "ELEMENT_SET_NO": 999, "REV_AT_EPOCH": 87091, "BSTAR": 0.00045048, "MEAN_MOTION_DOT": 1.68e-05, "MEAN_MOTION_DDOT": 0}, "tle": {"line1": "1 35051U 97051NX  25353.31584106  .00001680  00000+0  45048-3 0  9990", "line2": "2 35051  86.3238   5.9957 0010483  72.9006 287.3345 14.47625509870911"}}, "geometry": {"type": "Point", "coordinates": [9.866789434133562, 48.967960606072786]}}, {"type": "Feature", "properties": {"norad_id": 35052, "name": "IRIDIUM 33 DEB", "group": "iridium-33-debris", "lat": -44.779099050121886, "lon": 13.645504013855764, "alt_km": 773.3754761817199, "timestamp": "2025-12-20T03:42:47.779312+00:00", "meta": {"OBJECT_NAME": "IRIDIUM 33 DEB", "OBJECT_ID": "1997-051NY", "EPOCH": "2025-12-19T19:34:27.350112", "MEAN_MOTION": 14.38499806, "ECCENTRICITY": 0.0013428, "INCLINATION": 86.3302, "RA_OF_ASC_NODE": 17.4423, "ARG_OF_PERICENTER": 65.3416, "MEAN_ANOMALY": 294.9179, "EPHEMERIS_TYPE": 0, "CLASSIFICATION_TYPE": "U", "NORAD_CAT_ID": 35052, "ELEMENT_SET_NO": 999, "REV_AT_EPOCH": 87377, "BSTAR": 0.00013304, "MEAN_MOTION_DOT": 4.27e-06, "MEAN_MOTION_DDOT": 0}, "tle": {"line1": "1 35052U 97051NY  25353.81559433  .00000427  00000+0  13304-3 0  9999", "line2": "2 35052  86.3302  17.4423 0013428  65.3416 294.9179 14.38499806873778"}}, "geometry": {"type": "Point", "coordinates": [13.645504013855764, -44.779099050121886]}}, {"type": "Feature", "properties": {"norad_id": 35080, "name": "IRIDIUM 33 DEB", "group": "iridium-33-debris", "lat": -29.971745096710787, "lon": 46.63965265536089, "alt_km": 655.1737189864753, "timestamp": "2025-12-20T03:42:47.779322+00:00", "meta": {"OBJECT_NAME": "IRIDIUM 33 DEB", "OBJECT_ID": "1997-051PF", "EPOCH": "2025-12-18T03:23:24.146880", "MEAN_MOTION": 14.86677216, "ECCENTRICITY": 0.00593996, "INCLINATION": 86.2085, "RA_OF_ASC_NODE": 49.7944, "ARG_OF_PERICENTER": 161.1545, "MEAN_ANOMALY": 199.1899, "EPHEMERIS_TYPE": 0, "CLASSIFICATION_TYPE": "U", "NORAD_CAT_ID": 35080, "ELEMENT_SET_NO": 999, "REV_AT_EPOCH": 69768, "BSTAR": 0.004837816, "MEAN_MOTION_DOT": 0.0004462, "MEAN_MOTION_DDOT": 0}, "tle": {"line1": "1 35080U 97051PF  25352.14125170  .00044620  00000+0  48378-2 0  9993", "line2": "2 35080  86.2085  49.7944 0059399 161.1545 199.1899 14.86677216697682"}}, "geometry": {"type": "Point", "coordinates": [46.63965265536089, -29.971745096710787]}}, {"type": "Feature", "properties": {"norad_id": 35297, "name": "IRIDIUM 33 DEB", "group": "iridium-33-debris", "lat": 39.86624679559648, "lon": 62.62071955918158, "alt_km": 735.6153350709046, "timestamp": "2025-12-20T03:42:47.779333+00:00", "meta": {"OBJECT_NAME": "IRIDIUM 33 DEB", "OBJECT_ID": "1997-051PM", "EPOCH": "2025-12-16T11:27:21.167712", "MEAN_MOTION": 14.45174956, "ECCENTRICITY": 0.00178431, "INCLINATION": 86.3863, "RA_OF_ASC_NODE": 61.1645, "ARG_OF_PERICENTER": 129.6186, "MEAN_ANOMALY": 230.6595, "EPHEMERIS_TYPE": 0, "CLASSIFICATION_TYPE": "U", "NORAD_CAT_ID": 35297, "ELEMENT_SET_NO": 999, "REV_AT_EPOCH": 70480, "BSTAR": 0.00045011402, "MEAN_MOTION_DOT": 1.598e-05, "MEAN_MOTION_DDOT": 0}, "tle": {"line1": "1 35297U 97051PM  25350.47732833  .00001598  00000+0  45011-3 0  9996", "line2": "2 35297  86.3863  61.1645 0017843 129.6186 230.6595 14.45174956704806"}}, "geometry": {"type": "Point", "coordinates": [62.62071955918158, 39.86624679559648]}}, {"type": "Feature", "properties": {"norad_id": 35299, "name": "IRIDIUM 33 DEB", "group": "iridium-33-debris", "lat": -39.06976167769691, "lon": -147.02034864813479, "alt_km": 794.3961171171286, "timestamp": "2025-12-20T03:42:47.779343+00:00", "meta": {"OBJECT_NAME": "IRIDIUM 33 DEB", "OBJECT_ID": "1997-051PP", "EPOCH": "2025-12-18T02:30:13.094208", "MEAN_MOTION": 14.40886995, "ECCENTRICITY": 0.00588566, "INCLINATION": 86.2881, "RA_OF_ASC_NODE": 30.8512, "ARG_OF_PERICENTER": 85.3219, "MEAN_ANOMALY": 304.2144, "EPHEMERIS_TYPE": 0, "CLASSIFICATION_TYPE": "U", "NORAD_CAT_ID": 35299, "ELEMENT_SET_NO": 999, "REV_AT_EPOCH": 86408, "BSTAR": 0.00059608635, "MEAN_MOTION_DOT": 1.971e-05, "MEAN_MOTION_DDOT": 0}, "tle": {"line1": "1 35299U 97051PP  25352.10431822  .00001971  00000+0  59609-3 0  9997", "line2": "2 35299  86.2881  30.8512 0058856  85.3219 304.2144 14.40886995864080"}}, "geometry": {"type": "Point", "coordinates": [-147.02034864813479, -39.06976167769691]}}]}